{"type":"FeatureCollection","features":[{"type":"Feature","geometry":{"type":"Point","coordinates":[101.892949,-0.954404]},"properties":{"kind":"country_label","name":"Indonesia","labelrank":2,"min_zoom":0.0,"type":"Sovereign country","iso_a3":"IDN"}},{"type":"Feature","geometry":{"type":"Point","coordinates":[113.83708,2.528667]},"properties":{"kind":"country_label","name":"Malaysia","labelrank":3,"min_zoom":0.0,"type":"Sovereign country","iso_a3":"MYS"}},{"type":"Feature","geometry":{"type":"Point","coordinates":[-72.318871,-38.151771]},"properties":{"kind":"country_label","name":"Chile","labelrank":2,"min_zoom":0.0,"type":"Sovereign country","iso_a3":"CHL"}},{"type":"Feature","geometry":{"type":"Point","coordinates":[-64.593433,-16.666015]},"properties":{"kind":"country_label","name":"Bolivia","labelrank":3,"min_zoom":0.0,"type":"Sovereign country","iso_a3":"BOL"}},{"type":"Feature","geometry":{"type":"Point","coordinates":[-72.90016,-12.976679]},"properties":{"kind":"country_label","name":"Peru","labelrank":2,"min_zoom":0.0,"type":"Sovereign country","iso_a3":"PER"}},{"type":"Feature","geometry":{"type":"Point","coordinates":[-64.173331,-33.501159]},"properties":{"kind":"country_label","name":"Argentina","labelrank":2,"min_zoom":0.0,"type":"Sovereign country","iso_a3":"ARG"}},{"type":"Feature","geometry":{"type":"Point","coordinates":[33.790583,35.011042]},"properties":{"kind":"country_label","name":"Dhekelia","labelrank":3,"min_zoom":0.0,"type":"Dependency","iso_a3":"ESB"}},{"type":"Feature","geometry":{"type":"Point","coordinates":[33.084182,34.913329]},"properties":{"kind":"country_label","name":"Cyprus","labelrank":5,"min_zoom":0.0,"type":"Sovereign country","iso_a3":"CYP"}},{"type":"Feature","geometry":{"type":"Point","coordinates":[79.358105,22.686852]},"properties":{"kind":"country_label","name":"India","labelrank":2,"min_zoom":0.0,"type":"Sovereign country","iso_a3":"IND"}},{"type":"Feature","geometry":{"type":"Point","coordinates":[106.337289,32.498178]},"properties":{"kind":"country_label","name":"China","labelrank":2,"min_zoom":0.0,"type":"Country","iso_a3":"CHN"}},{"type":"Feature","geometry":{"type":"Point","coordinates":[34.847915,30.911148]},"properties":{"kind":"country_label","name":"Israel","labelrank":4,"min_zoom":0.0,"type":"Disputed","iso_a3":"ISR"}},{"type":"Feature","geometry":{"type":"Point","coordinates":[35.291341,32.047431]},"properties":{"kind":"country_label","name":"Palestine","labelrank":5,"min_zoom":7.0,"type":"Indeterminate","iso_a3":"PSX"}},{"type":"Feature","geometry":{"type":"Point","coordinates":[35.992892,34.133368]},"properties":{"kind":"country_label","name":"Lebanon","labelrank":5,"min_zoom":0.0,"type":"Sovereign country","iso_a3":"LBN"}},{"type":"Feature","geometry":{"type":"Point","coordinates":[39.0886,8.032795]},"properties":{"kind":"country_label","name":"Ethiopia","labelrank":2,"min_zoom":0.0,"type":"Sovereign country","iso_a3":"ETH"}},{"type":"Feature","geometry":{"type":"Point","coordinates":[30.390151,7.230477]},"properties":{"kind":"country_label","name":"S. Sudan","labelrank":3,"min_zoom":0.0,"type":"Sovereign country","iso_a3":"SDS"}},{"type":"Feature","geometry":{"type":"Point","coordinates":[45.19238,3.568925]},"properties":{"kind":"country_label","name":"Somalia","labelrank":6,"min_zoom":0.0,"type":"Sovereign country","iso_a3":"SOM"}},{"type":"Feature","geometry":{"type":"Point","coordinates":[37.907632,0.549043]},"properties":{"kind":"country_label","name":"Kenya","labelrank":2,"min_zoom":0.0,"type":"Sovereign country","iso_a3":"KEN"}},{"type":"Feature","geometry":{"type":"Point","coordinates":[33.608082,-13.386737]},"properties":{"kind":"country_label","name":"Malawi","labelrank":6,"min_zoom":0.0,"type":"Sovereign country","iso_a3":"MWI"}},{"type":"Feature","geometry":{"type":"Point","coordinates":[34.959183,-6.051866]},"properties":{"kind":"country_label","name":"Tanzania","labelrank":3,"min_zoom":0.0,"type":"Sovereign country","iso_a3":"TZA"}},{"type":"Feature","geometry":{"type":"Point","coordinates":[38.277783,35.006636]},"properties":{"kind":"country_label","name":"Syria","labelrank":3,"min_zoom":0.0,"type":"Sovereign country","iso_a3":"SYR"}},{"type":"Feature","geometry":{"type":"Point","coordinates":[46.731595,9.443889]},"properties":{"kind":"country_label","name":"Somaliland","labelrank":5,"min_zoom":4.0,"type":"Sovereign country","iso_a3":"SOL"}},{"type":"Feature","geometry":{"type":"Point","coordinates":[2.552275,46.696113]},"properties":{"kind":"country_label","name":"France","labelrank":2,"min_zoom":0.0,"type":"Country","iso_a3":"FRA"}},{"type":"Feature","geometry":{"type":"Point","coordinates":[-55.91094,4.143987]},"properties":{"kind":"country_label","name":"Suriname","labelrank":4,"min_zoom":0.0,"type":"Sovereign country","iso_a3":"SUR"}},{"type":"Feature","geometry":{"type":"Point","coordinates":[-58.942643,5.124317]},"properties":{"kind":"country_label","name":"Guyana","labelrank":4,"min_zoom":0.0,"type":"Sovereign country","iso_a3":"GUY"}},{"type":"Feature","geometry":{"type":"Point","coordinates":[128.129504,36.384924]},"properties":{"kind":"country_label","name":"South Korea","labelrank":2,"min_zoom":0.0,"type":"Sovereign country","iso_a3":"KOR"}},{"type":"Feature","geometry":{"type":"Point","coordinates":[126.444516,39.885252]},"properties":{"kind":"country_label","name":"North Korea","labelrank":3,"min_zoom":0.0,"type":"Sovereign country","iso_a3":"PRK"}},{"type":"Feature","geometry":{"type":"Point","coordinates":[-7.187296,31.650723]},"properties":{"kind":"country_label","name":"Morocco","labelrank":3,"min_zoom":0.0,"type":"Sovereign country","iso_a3":"MAR"}},{"type":"Feature","geometry":{"type":"Point","coordinates":[-12.630304,23.967592]},"properties":{"kind":"country_label","name":"W. Sahara","labelrank":7,"min_zoom":4.7,"type":"Indeterminate","iso_a3":"SAH"}},{"type":"Feature","geometry":{"type":"Point","coordinates":[-84.077922,10.0651]},"properties":{"kind":"country_label","name":"Costa Rica","labelrank":5,"min_zoom":0.0,"type":"Sovereign country","iso_a3":"CRI"}},{"type":"Feature","geometry":{"type":"Point","coordinates":[-85.069347,12.670697]},"properties":{"kind":"country_label","name":"Nicaragua","labelrank":5,"min_zoom":0.0,"type":"Sovereign country","iso_a3":"NIC"}},{"type":"Feature","geometry":{"type":"Point","coordinates":[15.9005,0.142331]},"properties":{"kind":"country_label","name":"Congo","labelrank":4,"min_zoom":0.0,"type":"Sovereign country","iso_a3":"COG"}},{"type":"Feature","geometry":{"type":"Point","coordinates":[23.458829,-1.858167]},"properties":{"kind":"country_label","name":"Dem. Rep. Congo","labelrank":2,"min_zoom":0.0,"type":"Sovereign country","iso_a3":"COD"}},{"type":"Feature","geometry":{"type":"Point","coordinates":[90.040294,27.536685]},"properties":{"kind":"country_label","name":"Bhutan","labelrank":5,"min_zoom":0.0,"type":"Sovereign country","iso_a3":"BTN"}},{"type":"Feature","geometry":{"type":"Point","coordinates":[32.140865,49.724739]},"properties":{"kind":"country_label","name":"Ukraine","labelrank":3,"min_zoom":0.0,"type":"Sovereign country","iso_a3":"UKR"}},{"type":"Feature","geometry":{"type":"Point","coordinates":[28.417701,53.821888]},"properties":{"kind":"country_label","name":"Belarus","labelrank":4,"min_zoom":0.0,"type":"Sovereign country","iso_a3":"BLR"}},{"type":"Feature","geometry":{"type":"Point","coordinates":[17.108166,-20.575298]},"properties":{"kind":"country_label","name":"Namibia","labelrank":3,"min_zoom":0.0,"type":"Sovereign country","iso_a3":"NAM"}},{"type":"Feature","geometry":{"type":"Point","coordinates":[23.665734,-29.708776]},"properties":{"kind":"country_label","name":"South Africa","labelrank":2,"min_zoom":0.0,"type":"Sovereign country","iso_a3":"ZAF"}},{"type":"Feature","geometry":{"type":"Point","coordinates":[-63.049399,18.081302]},"properties":{"kind":"country_label","name":"St-Martin","labelrank":6,"min_zoom":0.0,"type":"Dependency","iso_a3":"MAF"}},{"type":"Feature","geometry":{"type":"Point","coordinates":[-63.070133,18.04088]},"properties":{"kind":"country_label","name":"Sint Maarten","labelrank":6,"min_zoom":0.0,"type":"Country","iso_a3":"SXM"}},{"type":"Feature","geometry":{"type":"Point","coordinates":[57.336553,22.120427]},"properties":{"kind":"country_label","name":"Oman","labelrank":4,"min_zoom":0.0,"type":"Sovereign country","iso_a3":"OMN"}},{"type":"Feature","geometry":{"type":"Point","coordinates":[64.005429,41.693603]},"properties":{"kind":"country_label","name":"Uzbekistan","labelrank":3,"min_zoom":0.0,"type":"Sovereign country","iso_a3":"UZB"}},{"type":"Feature","geometry":{"type":"Point","coordinates":[68.685548,49.054149]},"properties":{"kind":"country_label","name":"Kazakhstan","labelrank":3,"min_zoom":0.0,"type":"Sovereignty","iso_a3":"KAZ"}},{"type":"Feature","geometry":{"type":"Point","coordinates":[72.587276,38.199835]},"properties":{"kind":"country_label","name":"Tajikistan","labelrank":4,"min_zoom":0.0,"type":"Sovereign country","iso_a3":"TJK"}},{"type":"Feature","geometry":{"type":"Point","coordinates":[24.089932,55.103703]},"properties":{"kind":"country_label","name":"Lithuania","labelrank":5,"min_zoom":0.0,"type":"Sovereign country","iso_a3":"LTU"}},{"type":"Feature","geometry":{"type":"Point","coordinates":[-49.55945,-12.098687]},"properties":{"kind":"country_label","name":"Brazil","labelrank":2,"min_zoom":0.0,"type":"Sovereign country","iso_a3":"BRA"}},{"type":"Feature","geometry":{"type":"Point","coordinates":[-55.966942,-32.961127]},"properties":{"kind":"country_label","name":"Uruguay","labelrank":4,"min_zoom":0.0,"type":"Sovereign country","iso_a3":"URY"}},{"type":"Feature","geometry":{"type":"Point","coordinates":[104.150405,45.997488]},"properties":{"kind":"country_label","name":"Mongolia","labelrank":3,"min_zoom":0.0,"type":"Sovereign country","iso_a3":"MNG"}},{"type":"Feature","geometry":{"type":"Point","coordinates":[44.686469,58.249357]},"properties":{"kind":"country_label","name":"Russia","labelrank":2,"min_zoom":0.0,"type":"Sovereign country","iso_a3":"RUS"}},{"type":"Feature","geometry":{"type":"Point","coordinates":[15.377555,49.882364]},"properties":{"kind":"country_label","name":"Czechia","labelrank":5,"min_zoom":0.0,"type":"Sovereign country","iso_a3":"CZE"}},{"type":"Feature","geometry":{"type":"Point","coordinates":[9.678348,50.961733]},"properties":{"kind":"country_label","name":"Germany","labelrank":2,"min_zoom":0.0,"type":"Sovereign country","iso_a3":"DEU"}},{"type":"Feature","geometry":{"type":"Point","coordinates":[25.867126,58.724865]},"properties":{"kind":"country_label","name":"Estonia","labelrank":6,"min_zoom":0.0,"type":"Sovereign country","iso_a3":"EST"}},{"type":"Feature","geometry":{"type":"Point","coordinates":[25.458723,57.066872]},"properties":{"kind":"country_label","name":"Latvia","labelrank":5,"min_zoom":0.0,"type":"Sovereign country","iso_a3":"LVA"}},{"type":"Feature","geometry":{"type":"Point","coordinates":[9.679975,61.357092]},"properties":{"kind":"country_label","name":"Norway","labelrank":3,"min_zoom":0.0,"type":"Sovereign country","iso_a3":"NOR"}},{"type":"Feature","geometry":{"type":"Point","coordinates":[19.01705,65.85918]},"properties":{"kind":"country_label","name":"Sweden","labelrank":3,"min_zoom":0.0,"type":"Sovereign country","iso_a3":"SWE"}},{"type":"Feature","geometry":{"type":"Point","coordinates":[27.276449,63.252361]},"properties":{"kind":"country_label","name":"Finland","labelrank":3,"min_zoom":0.0,"type":"Country","iso_a3":"FIN"}},{"type":"Feature","geometry":{"type":"Point","coordinates":[105.387292,21.715416]},"properties":{"kind":"country_label","name":"Vietnam","labelrank":2,"min_zoom":0.0,"type":"Sovereign country","iso_a3":"VNM"}},{"type":"Feature","geometry":{"type":"Point","coordinates":[104.50487,12.647584]},"properties":{"kind":"country_label","name":"Cambodia","labelrank":3,"min_zoom":0.0,"type":"Sovereign country","iso_a3":"KHM"}},{"type":"Feature","geometry":{"type":"Point","coordinates":[6.07762,49.733732]},"properties":{"kind":"country_label","name":"Luxembourg","labelrank":6,"min_zoom":0.0,"type":"Sovereign country","iso_a3":"LUX"}},{"type":"Feature","geometry":{"type":"Point","coordinates":[54.547256,23.466285]},"properties":{"kind":"country_label","name":"United Arab Emirates","labelrank":4,"min_zoom":0.0,"type":"Sovereign country","iso_a3":"ARE"}},{"type":"Feature","geometry":{"type":"Point","coordinates":[4.800448,50.785392]},"properties":{"kind":"country_label","name":"Belgium","labelrank":2,"min_zoom":0.0,"type":"Sovereign country","iso_a3":"BEL"}},{"type":"Feature","geometry":{"type":"Point","coordinates":[43.735724,41.870087]},"properties":{"kind":"country_label","name":"Georgia","labelrank":5,"min_zoom":0.0,"type":"Sovereign country","iso_a3":"GEO"}},{"type":"Feature","geometry":{"type":"Point","coordinates":[21.555839,41.558223]},"properties":{"kind":"country_label","name":"North Macedonia","labelrank":6,"min_zoom":0.0,"type":"Sovereign country","iso_a3":"MKD"}},{"type":"Feature","geometry":{"type":"Point","coordinates":[20.11384,40.654855]},"properties":{"kind":"country_label","name":"Albania","labelrank":6,"min_zoom":0.0,"type":"Sovereign country","iso_a3":"ALB"}},{"type":"Feature","geometry":{"type":"Point","coordinates":[47.210994,40.402387]},"properties":{"kind":"country_label","name":"Azerbaijan","labelrank":5,"min_zoom":0.0,"type":"Sovereign country","iso_a3":"AZE"}},{"type":"Feature","geometry":{"type":"Point","coordinates":[20.860719,42.593587]},"properties":{"kind":"country_label","name":"Kosovo","labelrank":6,"min_zoom":0.0,"type":"Disputed","iso_a3":"KOS"}},{"type":"Feature","geometry":{"type":"Point","coordinates":[34.508268,39.345388]},"properties":{"kind":"country_label","name":"Turkey","labelrank":2,"min_zoom":0.0,"type":"Sovereign country","iso_a3":"TUR"}},{"type":"Feature","geometry":{"type":"Point","coordinates":[-3.464718,40.090953]},"properties":{"kind":"country_label","name":"Spain","labelrank":2,"min_zoom":0.0,"type":"Sovereign country","iso_a3":"ESP"}},{"type":"Feature","geometry":{"type":"Point","coordinates":[102.533912,19.431821]},"properties":{"kind":"country_label","name":"Laos","labelrank":4,"min_zoom":0.0,"type":"Sovereign country","iso_a3":"LAO"}},{"type":"Feature","geometry":{"type":"Point","coordinates":[74.532637,41.66854]},"properties":{"kind":"country_label","name":"Kyrgyzstan","labelrank":4,"min_zoom":0.0,"type":"Sovereign country","iso_a3":"KGZ"}},{"type":"Feature","geometry":{"type":"Point","coordinates":[44.800564,40.459077]},"properties":{"kind":"country_label","name":"Armenia","labelrank":6,"min_zoom":0.0,"type":"Sovereign country","iso_a3":"ARM"}},{"type":"Feature","geometry":{"type":"Point","coordinates":[9.018163,55.966965]},"properties":{"kind":"country_label","name":"Denmark","labelrank":4,"min_zoom":0.0,"type":"Country","iso_a3":"DNK"}},{"type":"Feature","geometry":{"type":"Point","coordinates":[18.011015,26.638944]},"properties":{"kind":"country_label","name":"Libya","labelrank":3,"min_zoom":0.0,"type":"Sovereign country","iso_a3":"LBY"}},{"type":"Feature","geometry":{"type":"Point","coordinates":[9.007881,33.687263]},"properties":{"kind":"country_label","name":"Tunisia","labelrank":3,"min_zoom":0.0,"type":"Sovereign country","iso_a3":"TUN"}},{"type":"Feature","geometry":{"type":"Point","coordinates":[24.972624,45.733237]},"properties":{"kind":"country_label","name":"Romania","labelrank":3,"min_zoom":0.0,"type":"Sovereign country","iso_a3":"ROU"}},{"type":"Feature","geometry":{"type":"Point","coordinates":[19.447867,47.086841]},"properties":{"kind":"country_label","name":"Hungary","labelrank":5,"min_zoom":0.0,"type":"Sovereign country","iso_a3":"HUN"}},{"type":"Feature","geometry":{"type":"Point","coordinates":[19.049868,48.734044]},"properties":{"kind":"country_label","name":"Slovakia","labelrank":6,"min_zoom":0.0,"type":"Sovereign country","iso_a3":"SVK"}},{"type":"Feature","geometry":{"type":"Point","coordinates":[19.490468,51.990316]},"properties":{"kind":"country_label","name":"Poland","labelrank":3,"min_zoom":0.0,"type":"Sovereign country","iso_a3":"POL"}},{"type":"Feature","geometry":{"type":"Point","coordinates":[-7.798588,53.078726]},"properties":{"kind":"country_label","name":"Ireland","labelrank":3,"min_zoom":0.0,"type":"Sovereign country","iso_a3":"IRL"}},{"type":"Feature","geometry":{"type":"Point","coordinates":[-2.116346,54.402739]},"properties":{"kind":"country_label","name":"United Kingdom","labelrank":2,"min_zoom":0.0,"type":"Country","iso_a3":"GBR"}},{"type":"Feature","geometry":{"type":"Point","coordinates":[21.72568,39.492763]},"properties":{"kind":"country_label","name":"Greece","labelrank":3,"min_zoom":0.0,"type":"Sovereign country","iso_a3":"GRC"}},{"type":"Feature","geometry":{"type":"Point","coordinates":[26.395298,-14.660804]},"properties":{"kind":"country_label","name":"Zambia","labelrank":3,"min_zoom":0.0,"type":"Sovereign country","iso_a3":"ZMB"}},{"type":"Feature","geometry":{"type":"Point","coordinates":[-11.763677,8.617449]},"properties":{"kind":"country_label","name":"Sierra Leone","labelrank":4,"min_zoom":0.0,"type":"Sovereign country","iso_a3":"SLE"}},{"type":"Feature","geometry":{"type":"Point","coordinates":[-10.016402,10.618516]},"properties":{"kind":"country_label","name":"Guinea","labelrank":3,"min_zoom":0.0,"type":"Sovereign country","iso_a3":"GIN"}},{"type":"Feature","geometry":{"type":"Point","coordinates":[-9.460379,6.447177]},"properties":{"kind":"country_label","name":"Liberia","labelrank":4,"min_zoom":0.0,"type":"Sovereign country","iso_a3":"LBR"}},{"type":"Feature","geometry":{"type":"Point","coordinates":[20.906897,6.989681]},"properties":{"kind":"country_label","name":"Central African Rep.","labelrank":4,"min_zoom":0.0,"type":"Sovereign country","iso_a3":"CAF"}},{"type":"Feature","geometry":{"type":"Point","coordinates":[29.260657,16.330746]},"properties":{"kind":"country_label","name":"Sudan","labelrank":3,"min_zoom":0.0,"type":"Sovereign country","iso_a3":"SDN"}},{"type":"Feature","geometry":{"type":"Point","coordinates":[42.498825,11.976343]},"properties":{"kind":"country_label","name":"Djibouti","labelrank":5,"min_zoom":0.0,"type":"Sovereign country","iso_a3":"DJI"}},{"type":"Feature","geometry":{"type":"Point","coordinates":[38.285566,15.787401]},"properties":{"kind":"country_label","name":"Eritrea","labelrank":4,"min_zoom":0.0,"type":"Sovereign country","iso_a3":"ERI"}},{"type":"Feature","geometry":{"type":"Point","coordinates":[14.130515,47.518859]},"properties":{"kind":"country_label","name":"Austria","labelrank":4,"min_zoom":0.0,"type":"Sovereign country","iso_a3":"AUT"}},{"type":"Feature","geometry":{"type":"Point","coordinates":[43.26181,33.09403]},"properties":{"kind":"country_label","name":"Iraq","labelrank":3,"min_zoom":0.0,"type":"Sovereign country","iso_a3":"IRQ"}},{"type":"Feature","geometry":{"type":"Point","coordinates":[11.076907,44.732482]},"properties":{"kind":"country_label","name":"Italy","labelrank":2,"min_zoom":0.0,"type":"Sovereign country","iso_a3":"ITA"}},{"type":"Feature","geometry":{"type":"Point","coordinates":[7.463965,46.719114]},"properties":{"kind":"country_label","name":"Switzerland","labelrank":4,"min_zoom":0.0,"type":"Sovereign country","iso_a3":"CHE"}},{"type":"Feature","geometry":{"type":"Point","coordinates":[54.931495,32.166225]},"properties":{"kind":"country_label","name":"Iran","labelrank":2,"min_zoom":0.0,"type":"Sovereign country","iso_a3":"IRN"}},{"type":"Feature","geometry":{"type":"Point","coordinates":[5.61144,52.422211]},"properties":{"kind":"country_label","name":"Netherlands","labelrank":5,"min_zoom":0.0,"type":"Country","iso_a3":"NLD"}},{"type":"Feature","geometry":{"type":"Point","coordinates":[9.559439,47.111405]},"properties":{"kind":"country_label","name":"Liechtenstein","labelrank":6,"min_zoom":0.0,"type":"Sovereign country","iso_a3":"LIE"}},{"type":"Feature","geometry":{"type":"Point","coordinates":[-5.568618,7.49139]},"properties":{"kind":"country_label","name":"C\u00f4te d'Ivoire","labelrank":3,"min_zoom":0.0,"type":"Sovereign country","iso_a3":"CIV"}},{"type":"Feature","geometry":{"type":"Point","coordinates":[20.787989,44.189919]},"properties":{"kind":"country_label","name":"Serbia","labelrank":5,"min_zoom":0.0,"type":"Sovereign country","iso_a3":"SRB"}},{"type":"Feature","geometry":{"type":"Point","coordinates":[-2.038455,18.692713]},"properties":{"kind":"country_label","name":"Mali","labelrank":3,"min_zoom":0.0,"type":"Sovereign country","iso_a3":"MLI"}},{"type":"Feature","geometry":{"type":"Point","coordinates":[-14.778586,15.138125]},"properties":{"kind":"country_label","name":"Senegal","labelrank":3,"min_zoom":0.0,"type":"Sovereign country","iso_a3":"SEN"}},{"type":"Feature","geometry":{"type":"Point","coordinates":[7.50322,9.439799]},"properties":{"kind":"country_label","name":"Nigeria","labelrank":2,"min_zoom":0.0,"type":"Sovereign country","iso_a3":"NGA"}},{"type":"Feature","geometry":{"type":"Point","coordinates":[2.352018,10.324775]},"properties":{"kind":"country_label","name":"Benin","labelrank":5,"min_zoom":0.0,"type":"Sovereign country","iso_a3":"BEN"}},{"type":"Feature","geometry":{"type":"Point","coordinates":[17.984249,-12.182762]},"properties":{"kind":"country_label","name":"Angola","labelrank":3,"min_zoom":0.0,"type":"Sovereign country","iso_a3":"AGO"}},{"type":"Feature","geometry":{"type":"Point","coordinates":[16.37241,45.805799]},"properties":{"kind":"country_label","name":"Croatia","labelrank":6,"min_zoom":0.0,"type":"Sovereign country","iso_a3":"HRV"}},{"type":"Feature","geometry":{"type":"Point","coordinates":[14.915312,46.06076]},"properties":{"kind":"country_label","name":"Slovenia","labelrank":6,"min_zoom":0.0,"type":"Sovereign country","iso_a3":"SVN"}},{"type":"Feature","geometry":{"type":"Point","coordinates":[51.143509,25.237383]},"properties":{"kind":"country_label","name":"Qatar","labelrank":5,"min_zoom":0.0,"type":"Sovereign country","iso_a3":"QAT"}},{"type":"Feature","geometry":{"type":"Point","coordinates":[44.6996,23.806908]},"properties":{"kind":"country_label","name":"Saudi Arabia","labelrank":2,"min_zoom":0.0,"type":"Sovereign country","iso_a3":"SAU"}},{"type":"Feature","geometry":{"type":"Point","coordinates":[24.179216,-22.102634]},"properties":{"kind":"country_label","name":"Botswana","labelrank":4,"min_zoom":0.0,"type":"Sovereign country","iso_a3":"BWA"}},{"type":"Feature","geometry":{"type":"Point","coordinates":[29.925444,-18.91164]},"properties":{"kind":"country_label","name":"Zimbabwe","labelrank":3,"min_zoom":0.0,"type":"Sovereign country","iso_a3":"ZWE"}},{"type":"Feature","geometry":{"type":"Point","coordinates":[68.545632,29.328389]},"properties":{"kind":"country_label","name":"Pakistan","labelrank":2,"min_zoom":0.0,"type":"Sovereign country","iso_a3":"PAK"}},{"type":"Feature","geometry":{"type":"Point","coordinates":[25.15709,42.508785]},"properties":{"kind":"country_label","name":"Bulgaria","labelrank":4,"min_zoom":0.0,"type":"Sovereign country","iso_a3":"BGR"}},{"type":"Feature","geometry":{"type":"Point","coordinates":[101.073198,15.45974]},"properties":{"kind":"country_label","name":"Thailand","labelrank":3,"min_zoom":0.0,"type":"Sovereign country","iso_a3":"THA"}},{"type":"Feature","geometry":{"type":"Point","coordinates":[12.441206,43.933916]},"properties":{"kind":"country_label","name":"San Marino","labelrank":6,"min_zoom":0.0,"type":"Sovereign country","iso_a3":"SMR"}},{"type":"Feature","geometry":{"type":"Point","coordinates":[-72.224051,19.263784]},"properties":{"kind":"country_label","name":"Haiti","labelrank":5,"min_zoom":0.0,"type":"Sovereign country","iso_a3":"HTI"}},{"type":"Feature","geometry":{"type":"Point","coordinates":[-70.653998,19.104137]},"properties":{"kind":"country_label","name":"Dominican Rep.","labelrank":5,"min_zoom":0.0,"type":"Sovereign country","iso_a3":"DOM"}},{"type":"Feature","geometry":{"type":"Point","coordinates":[18.645041,15.142959]},"properties":{"kind":"country_label","name":"Chad","labelrank":3,"min_zoom":0.0,"type":"Sovereign country","iso_a3":"TCD"}},{"type":"Feature","geometry":{"type":"Point","coordinates":[47.313999,29.413628]},"properties":{"kind":"country_label","name":"Kuwait","labelrank":6,"min_zoom":0.0,"type":"Sovereign country","iso_a3":"KWT"}},{"type":"Feature","geometry":{"type":"Point","coordinates":[-88.890124,13.685371]},"properties":{"kind":"country_label","name":"El Salvador","labelrank":6,"min_zoom":0.0,"type":"Sovereign country","iso_a3":"SLV"}},{"type":"Feature","geometry":{"type":"Point","coordinates":[-90.497134,14.982133]},"properties":{"kind":"country_label","name":"Guatemala","labelrank":3,"min_zoom":0.0,"type":"Sovereign country","iso_a3":"GTM"}},{"type":"Feature","geometry":{"type":"Point","coordinates":[125.854679,-8.803705]},"properties":{"kind":"country_label","name":"Timor-Leste","labelrank":5,"min_zoom":0.0,"type":"Sovereign country","iso_a3":"TLS"}},{"type":"Feature","geometry":{"type":"Point","coordinates":[114.551943,4.448298]},"properties":{"kind":"country_label","name":"Brunei","labelrank":6,"min_zoom":0.0,"type":"Sovereign country","iso_a3":"BRN"}},{"type":"Feature","geometry":{"type":"Point","coordinates":[7.398291,43.739652]},"properties":{"kind":"country_label","name":"Monaco","labelrank":6,"min_zoom":0.0,"type":"Sovereign country","iso_a3":"MCO"}},{"type":"Feature","geometry":{"type":"Point","coordinates":[2.808241,27.397406]},"properties":{"kind":"country_label","name":"Algeria","labelrank":3,"min_zoom":0.0,"type":"Sovereign country","iso_a3":"DZA"}},{"type":"Feature","geometry":{"type":"Point","coordinates":[37.83789,-13.94323]},"properties":{"kind":"country_label","name":"Mozambique","labelrank":3,"min_zoom":0.0,"type":"Sovereign country","iso_a3":"MOZ"}},{"type":"Feature","geometry":{"type":"Point","coordinates":[31.467264,-26.533676]},"properties":{"kind":"country_label","name":"eSwatini","labelrank":4,"min_zoom":0.0,"type":"Sovereign country","iso_a3":"SWZ"}},{"type":"Feature","geometry":{"type":"Point","coordinates":[29.917086,-3.332836]},"properties":{"kind":"country_label","name":"Burundi","labelrank":6,"min_zoom":0.0,"type":"Sovereign country","iso_a3":"BDI"}},{"type":"Feature","geometry":{"type":"Point","coordinates":[30.103894,-1.897196]},"properties":{"kind":"country_label","name":"Rwanda","labelrank":3,"min_zoom":0.0,"type":"Sovereign country","iso_a3":"RWA"}},{"type":"Feature","geometry":{"type":"Point","coordinates":[95.804497,21.573855]},"properties":{"kind":"country_label","name":"Myanmar","labelrank":3,"min_zoom":0.0,"type":"Sovereign country","iso_a3":"MMR"}},{"type":"Feature","geometry":{"type":"Point","coordinates":[89.684963,24.214956]},"properties":{"kind":"country_label","name":"Bangladesh","labelrank":3,"min_zoom":0.0,"type":"Sovereign country","iso_a3":"BGD"}},{"type":"Feature","geometry":{"type":"Point","coordinates":[1.539409,42.547643]},"properties":{"kind":"country_label","name":"Andorra","labelrank":6,"min_zoom":0.0,"type":"Sovereign country","iso_a3":"AND"}},{"type":"Feature","geometry":{"type":"Point","coordinates":[66.496586,34.164262]},"properties":{"kind":"country_label","name":"Afghanistan","labelrank":3,"min_zoom":0.0,"type":"Sovereign country","iso_a3":"AFG"}},{"type":"Feature","geometry":{"type":"Point","coordinates":[19.143727,42.803101]},"properties":{"kind":"country_label","name":"Montenegro","labelrank":6,"min_zoom":0.0,"type":"Sovereign country","iso_a3":"MNE"}},{"type":"Feature","geometry":{"type":"Point","coordinates":[18.06841,44.091051]},"properties":{"kind":"country_label","name":"Bosnia and Herz.","labelrank":5,"min_zoom":0.0,"type":"Sovereign country","iso_a3":"BIH"}},{"type":"Feature","geometry":{"type":"Point","coordinates":[32.948555,1.972589]},"properties":{"kind":"country_label","name":"Uganda","labelrank":3,"min_zoom":0.0,"type":"Sovereign country","iso_a3":"UGA"}},{"type":"Feature","geometry":{"type":"Point","coordinates":[-75.117277,19.918398]},"properties":{"kind":"country_label","name":"USNB Guantanamo Bay","labelrank":10,"min_zoom":5.0,"type":"Lease","iso_a3":"USG"}},{"type":"Feature","geometry":{"type":"Point","coordinates":[-77.975855,21.334024]},"properties":{"kind":"country_label","name":"Cuba","labelrank":3,"min_zoom":0.0,"type":"Sovereignty","iso_a3":"CUB"}},{"type":"Feature","geometry":{"type":"Point","coordinates":[-86.887604,14.794801]},"properties":{"kind":"country_label","name":"Honduras","labelrank":5,"min_zoom":0.0,"type":"Sovereign country","iso_a3":"HND"}},{"type":"Feature","geometry":{"type":"Point","coordinates":[-78.188375,-1.259076]},"properties":{"kind":"country_label","name":"Ecuador","labelrank":3,"min_zoom":0.0,"type":"Sovereign country","iso_a3":"ECU"}},{"type":"Feature","geometry":{"type":"Point","coordinates":[-73.174347,3.373111]},"properties":{"kind":"country_label","name":"Colombia","labelrank":2,"min_zoom":0.0,"type":"Sovereign country","iso_a3":"COL"}},{"type":"Feature","geometry":{"type":"Point","coordinates":[-60.146394,-21.674509]},"properties":{"kind":"country_label","name":"Paraguay","labelrank":4,"min_zoom":0.0,"type":"Sovereign country","iso_a3":"PRY"}},{"type":"Feature","geometry":{"type":"Point","coordinates":[-57.623042,-30.187555]},"properties":{"kind":"country_label","name":"Brazilian I.","labelrank":9,"min_zoom":7.0,"type":"Indeterminate","iso_a3":"BRI"}},{"type":"Feature","geometry":{"type":"Point","coordinates":[-8.271754,39.606675]},"properties":{"kind":"country_label","name":"Portugal","labelrank":2,"min_zoom":0.0,"type":"Sovereign country","iso_a3":"PRT"}},{"type":"Feature","geometry":{"type":"Point","coordinates":[28.487904,47.434999]},"properties":{"kind":"country_label","name":"Moldova","labelrank":6,"min_zoom":0.0,"type":"Sovereign country","iso_a3":"MDA"}},{"type":"Feature","geometry":{"type":"Point","coordinates":[58.676647,39.855246]},"properties":{"kind":"country_label","name":"Turkmenistan","labelrank":4,"min_zoom":0.0,"type":"Sovereign country","iso_a3":"TKM"}},{"type":"Feature","geometry":{"type":"Point","coordinates":[36.375991,30.805025]},"properties":{"kind":"country_label","name":"Jordan","labelrank":4,"min_zoom":0.0,"type":"Sovereign country","iso_a3":"JOR"}},{"type":"Feature","geometry":{"type":"Point","coordinates":[83.639914,28.297925]},"properties":{"kind":"country_label","name":"Nepal","labelrank":3,"min_zoom":0.0,"type":"Sovereign country","iso_a3":"NPL"}},{"type":"Feature","geometry":{"type":"Point","coordinates":[28.246639,-29.480158]},"properties":{"kind":"country_label","name":"Lesotho","labelrank":6,"min_zoom":0.0,"type":"Sovereign country","iso_a3":"LSO"}},{"type":"Feature","geometry":{"type":"Point","coordinates":[12.473488,4.585041]},"properties":{"kind":"country_label","name":"Cameroon","labelrank":3,"min_zoom":0.0,"type":"Sovereign country","iso_a3":"CMR"}},{"type":"Feature","geometry":{"type":"Point","coordinates":[11.835939,-0.437739]},"properties":{"kind":"country_label","name":"Gabon","labelrank":4,"min_zoom":0.0,"type":"Sovereign country","iso_a3":"GAB"}},{"type":"Feature","geometry":{"type":"Point","coordinates":[9.504356,17.446195]},"properties":{"kind":"country_label","name":"Niger","labelrank":3,"min_zoom":0.0,"type":"Sovereign country","iso_a3":"NER"}},{"type":"Feature","geometry":{"type":"Point","coordinates":[-1.36388,12.673048]},"properties":{"kind":"country_label","name":"Burkina Faso","labelrank":3,"min_zoom":0.0,"type":"Sovereign country","iso_a3":"BFA"}},{"type":"Feature","geometry":{"type":"Point","coordinates":[1.058113,8.80722]},"properties":{"kind":"country_label","name":"Togo","labelrank":6,"min_zoom":0.0,"type":"Sovereign country","iso_a3":"TGO"}},{"type":"Feature","geometry":{"type":"Point","coordinates":[-1.036941,7.717639]},"properties":{"kind":"country_label","name":"Ghana","labelrank":3,"min_zoom":0.0,"type":"Sovereign country","iso_a3":"GHA"}},{"type":"Feature","geometry":{"type":"Point","coordinates":[-14.52413,12.163712]},"properties":{"kind":"country_label","name":"Guinea-Bissau","labelrank":6,"min_zoom":0.0,"type":"Sovereign country","iso_a3":"GNB"}},{"type":"Feature","geometry":{"type":"Point","coordinates":[-5.3467,36.129426]},"properties":{"kind":"country_label","name":"Gibraltar","labelrank":5,"min_zoom":0.0,"type":"Disputed","iso_a3":"GIB"}},{"type":"Feature","geometry":{"type":"Point","coordinates":[-97.482602,39.538479]},"properties":{"kind":"country_label","name":"United States of America","labelrank":2,"min_zoom":0.0,"type":"Country","iso_a3":"USA"}},{"type":"Feature","geometry":{"type":"Point","coordinates":[-101.9107,60.324287]},"properties":{"kind":"country_label","name":"Canada","labelrank":2,"min_zoom":0.0,"type":"Sovereign country","iso_a3":"CAN"}},{"type":"Feature","geometry":{"type":"Point","coordinates":[-102.289448,23.919988]},"properties":{"kind":"country_label","name":"Mexico","labelrank":2,"min_zoom":0.0,"type":"Sovereign country","iso_a3":"MEX"}},{"type":"Feature","geometry":{"type":"Point","coordinates":[-88.712962,17.202068]},"properties":{"kind":"country_label","name":"Belize","labelrank":6,"min_zoom":0.0,"type":"Sovereign country","iso_a3":"BLZ"}},{"type":"Feature","geometry":{"type":"Point","coordinates":[-80.352106,8.72198]},"properties":{"kind":"country_label","name":"Panama","labelrank":4,"min_zoom":0.0,"type":"Sovereign country","iso_a3":"PAN"}},{"type":"Feature","geometry":{"type":"Point","coordinates":[-64.599381,7.182476]},"properties":{"kind":"country_label","name":"Venezuela","labelrank":3,"min_zoom":0.0,"type":"Sovereign country","iso_a3":"VEN"}},{"type":"Feature","geometry":{"type":"Point","coordinates":[143.910216,-5.695285]},"properties":{"kind":"country_label","name":"Papua New Guinea","labelrank":2,"min_zoom":0.0,"type":"Sovereign country","iso_a3":"PNG"}},{"type":"Feature","geometry":{"type":"Point","coordinates":[29.445837,26.186173]},"properties":{"kind":"country_label","name":"Egypt","labelrank":2,"min_zoom":0.0,"type":"Sovereign country","iso_a3":"EGY"}},{"type":"Feature","geometry":{"type":"Point","coordinates":[45.874383,15.328226]},"properties":{"kind":"country_label","name":"Yemen","labelrank":3,"min_zoom":0.0,"type":"Sovereign country","iso_a3":"YEM"}},{"type":"Feature","geometry":{"type":"Point","coordinates":[-9.740299,19.587062]},"properties":{"kind":"country_label","name":"Mauritania","labelrank":3,"min_zoom":0.0,"type":"Sovereign country","iso_a3":"MRT"}},{"type":"Feature","geometry":{"type":"Point","coordinates":[8.9902,2.333]},"properties":{"kind":"country_label","name":"Eq. Guinea","labelrank":4,"min_zoom":0.0,"type":"Sovereign country","iso_a3":"GNQ"}},{"type":"Feature","geometry":{"type":"Point","coordinates":[-14.998318,13.641721]},"properties":{"kind":"country_label","name":"Gambia","labelrank":6,"min_zoom":0.0,"type":"Sovereign country","iso_a3":"GMB"}},{"type":"Feature","geometry":{"type":"Point","coordinates":[114.097769,22.448829]},"properties":{"kind":"country_label","name":"Hong Kong","labelrank":4,"min_zoom":0.0,"type":"Country","iso_a3":"HKG"}},{"type":"Feature","geometry":{"type":"Point","coordinates":[12.453418,41.903323]},"properties":{"kind":"country_label","name":"Vatican","labelrank":6,"min_zoom":0.0,"type":"Sovereign country","iso_a3":"VAT"}},{"type":"Feature","geometry":{"type":"Point","coordinates":[33.692434,35.216071]},"properties":{"kind":"country_label","name":"N. Cyprus","labelrank":6,"min_zoom":0.0,"type":"Sovereign country","iso_a3":"CYN"}},{"type":"Feature","geometry":{"type":"Point","coordinates":[33.288134,35.140713]},"properties":{"kind":"country_label","name":"Cyprus U.N. Buffer Zone","labelrank":9,"min_zoom":7.0,"type":"Indeterminate","iso_a3":"CNM"}},{"type":"Feature","geometry":{"type":"Point","coordinates":[77.129553,35.340606]},"properties":{"kind":"country_label","name":"Siachen Glacier","labelrank":5,"min_zoom":5.0,"type":"Indeterminate","iso_a3":"KAS"}},{"type":"Feature","geometry":{"type":"Point","coordinates":[63.383897,45.978332]},"properties":{"kind":"country_label","name":"Baikonur","labelrank":5,"min_zoom":5.0,"type":"Lease","iso_a3":"KAB"}},{"type":"Feature","geometry":{"type":"Point","coordinates":[32.979025,34.60083]},"properties":{"kind":"country_label","name":"Akrotiri","labelrank":3,"min_zoom":0.0,"type":"Dependency","iso_a3":"WSB"}},{"type":"Feature","geometry":{"type":"Point","coordinates":[-73.31378,-49.511034]},"properties":{"kind":"country_label","name":"Southern Patagonian Ice Field","labelrank":9,"min_zoom":7.0,"type":"Indeterminate","iso_a3":"SPI"}},{"type":"Feature","geometry":{"type":"Point","coordinates":[33.673428,21.860442]},"properties":{"kind":"country_label","name":"Bir Tawil","labelrank":8,"min_zoom":7.0,"type":"Indeterminate","iso_a3":"BRT"}},{"type":"Feature","geometry":{"type":"Point","coordinates":[35.885455,-79.843222]},"properties":{"kind":"country_label","name":"Antarctica","labelrank":4,"min_zoom":0.0,"type":"Indeterminate","iso_a3":"ATA"}},{"type":"Feature","geometry":{"type":"Point","coordinates":[134.04972,-24.129522]},"properties":{"kind":"country_label","name":"Australia","labelrank":2,"min_zoom":0.0,"type":"Country","iso_a3":"AUS"}},{"type":"Feature","geometry":{"type":"Point","coordinates":[-39.335251,74.319387]},"properties":{"kind":"country_label","name":"Greenland","labelrank":3,"min_zoom":0.0,"type":"Country","iso_a3":"GRL"}},{"type":"Feature","geometry":{"type":"Point","coordinates":[177.975427,-17.826099]},"properties":{"kind":"country_label","name":"Fiji","labelrank":6,"min_zoom":0.0,"type":"Sovereign country","iso_a3":"FJI"}},{"type":"Feature","geometry":{"type":"Point","coordinates":[172.787,-39.759]},"properties":{"kind":"country_label","name":"New Zealand","labelrank":2,"min_zoom":0.0,"type":"Country","iso_a3":"NZL"}},{"type":"Feature","geometry":{"type":"Point","coordinates":[165.084004,-21.064697]},"properties":{"kind":"country_label","name":"New Caledonia","labelrank":3,"min_zoom":0.0,"type":"Dependency","iso_a3":"NCL"}},{"type":"Feature","geometry":{"type":"Point","coordinates":[46.704241,-18.628288]},"properties":{"kind":"country_label","name":"Madagascar","labelrank":3,"min_zoom":0.0,"type":"Sovereign country","iso_a3":"MDG"}},{"type":"Feature","geometry":{"type":"Point","coordinates":[122.465,11.198]},"properties":{"kind":"country_label","name":"Philippines","labelrank":2,"min_zoom":0.0,"type":"Sovereign country","iso_a3":"PHL"}},{"type":"Feature","geometry":{"type":"Point","coordinates":[80.704823,7.581097]},"properties":{"kind":"country_label","name":"Sri Lanka","labelrank":3,"min_zoom":0.0,"type":"Sovereign country","iso_a3":"LKA"}},{"type":"Feature","geometry":{"type":"Point","coordinates":[-68.920578,12.145039]},"properties":{"kind":"country_label","name":"Cura\u00e7ao","labelrank":5,"min_zoom":0.0,"type":"Country","iso_a3":"CUW"}},{"type":"Feature","geometry":{"type":"Point","coordinates":[-69.972795,12.5174]},"properties":{"kind":"country_label","name":"Aruba","labelrank":5,"min_zoom":0.0,"type":"Country","iso_a3":"ABW"}},{"type":"Feature","geometry":{"type":"Point","coordinates":[-77.146688,26.401789]},"properties":{"kind":"country_label","name":"Bahamas","labelrank":4,"min_zoom":0.0,"type":"Sovereign country","iso_a3":"BHS"}},{"type":"Feature","geometry":{"type":"Point","coordinates":[-71.752704,21.81663]},"properties":{"kind":"country_label","name":"Turks and Caicos Is.","labelrank":6,"min_zoom":0.0,"type":"Dependency","iso_a3":"TCA"}},{"type":"Feature","geometry":{"type":"Point","coordinates":[120.868204,23.652408]},"properties":{"kind":"country_label","name":"Taiwan","labelrank":3,"min_zoom":0.0,"type":"Sovereign country","iso_a3":"TWN"}},{"type":"Feature","geometry":{"type":"Point","coordinates":[138.44217,36.142538]},"properties":{"kind":"country_label","name":"Japan","labelrank":2,"min_zoom":0.0,"type":"Sovereign country","iso_a3":"JPN"}},{"type":"Feature","geometry":{"type":"Point","coordinates":[-56.332352,47.040344]},"properties":{"kind":"country_label","name":"St. Pierre and Miquelon","labelrank":4,"min_zoom":0.0,"type":"Dependency","iso_a3":"SPM"}},{"type":"Feature","geometry":{"type":"Point","coordinates":[-18.673711,64.779286]},"properties":{"kind":"country_label","name":"Iceland","labelrank":3,"min_zoom":0.0,"type":"Sovereign country","iso_a3":"ISL"}},{"type":"Feature","geometry":{"type":"Point","coordinates":[-128.317536,-24.364576]},"properties":{"kind":"country_label","name":"Pitcairn Is.","labelrank":4,"min_zoom":0.0,"type":"Dependency","iso_a3":"PCN"}},{"type":"Feature","geometry":{"type":"Point","coordinates":[-149.46157,-17.628081]},"properties":{"kind":"country_label","name":"Fr. Polynesia","labelrank":4,"min_zoom":0.0,"type":"Dependency","iso_a3":"PYF"}},{"type":"Feature","geometry":{"type":"Point","coordinates":[69.122136,-49.303721]},"properties":{"kind":"country_label","name":"Fr. S. Antarctic Lands","labelrank":6,"min_zoom":0.0,"type":"Dependency","iso_a3":"ATF"}},{"type":"Feature","geometry":{"type":"Point","coordinates":[55.480175,-4.676659]},"properties":{"kind":"country_label","name":"Seychelles","labelrank":6,"min_zoom":0.0,"type":"Sovereign country","iso_a3":"SYC"}},{"type":"Feature","geometry":{"type":"Point","coordinates":[-157.384577,1.820437]},"properties":{"kind":"country_label","name":"Kiribati","labelrank":6,"min_zoom":0.0,"type":"Sovereign country","iso_a3":"KIR"}},{"type":"Feature","geometry":{"type":"Point","coordinates":[171.193609,7.082568]},"properties":{"kind":"country_label","name":"Marshall Is.","labelrank":6,"min_zoom":0.0,"type":"Sovereign country","iso_a3":"MHL"}},{"type":"Feature","geometry":{"type":"Point","coordinates":[-60.9184,10.9989]},"properties":{"kind":"country_label","name":"Trinidad and Tobago","labelrank":5,"min_zoom":0.0,"type":"Sovereign country","iso_a3":"TTO"}},{"type":"Feature","geometry":{"type":"Point","coordinates":[-61.680461,12.113156]},"properties":{"kind":"country_label","name":"Grenada","labelrank":6,"min_zoom":0.0,"type":"Sovereign country","iso_a3":"GRD"}},{"type":"Feature","geometry":{"type":"Point","coordinates":[-61.3359,13.0879]},"properties":{"kind":"country_label","name":"St. Vin. and Gren.","labelrank":6,"min_zoom":0.0,"type":"Sovereign country","iso_a3":"VCT"}},{"type":"Feature","geometry":{"type":"Point","coordinates":[-59.568966,13.163709]},"properties":{"kind":"country_label","name":"Barbados","labelrank":5,"min_zoom":0.0,"type":"Sovereign country","iso_a3":"BRB"}},{"type":"Feature","geometry":{"type":"Point","coordinates":[-60.980094,13.892371]},"properties":{"kind":"country_label","name":"Saint Lucia","labelrank":6,"min_zoom":0.0,"type":"Sovereign country","iso_a3":"LCA"}},{"type":"Feature","geometry":{"type":"Point","coordinates":[-61.344958,15.458829]},"properties":{"kind":"country_label","name":"Dominica","labelrank":6,"min_zoom":0.0,"type":"Sovereign country","iso_a3":"DMA"}},{"type":"Feature","geometry":{"type":"Point","coordinates":[166.644535,19.285663]},"properties":{"kind":"country_label","name":"U.S. Minor Outlying Is.","labelrank":5,"min_zoom":0.0,"type":"Dependency","iso_a3":"UMI"}},{"type":"Feature","geometry":{"type":"Point","coordinates":[-62.188252,16.73717]},"properties":{"kind":"country_label","name":"Montserrat","labelrank":6,"min_zoom":0.0,"type":"Dependency","iso_a3":"MSR"}},{"type":"Feature","geometry":{"type":"Point","coordinates":[-61.790612,17.352249]},"properties":{"kind":"country_label","name":"Antigua and Barb.","labelrank":6,"min_zoom":0.0,"type":"Sovereign country","iso_a3":"ATG"}},{"type":"Feature","geometry":{"type":"Point","coordinates":[-62.757975,17.336558]},"properties":{"kind":"country_label","name":"St. Kitts and Nevis","labelrank":6,"min_zoom":0.0,"type":"Sovereign country","iso_a3":"KNA"}},{"type":"Feature","geometry":{"type":"Point","coordinates":[-64.779172,17.746706]},"properties":{"kind":"country_label","name":"U.S. Virgin Is.","labelrank":6,"min_zoom":0.0,"type":"Dependency","iso_a3":"VIR"}},{"type":"Feature","geometry":{"type":"Point","coordinates":[-62.833193,17.901987]},"properties":{"kind":"country_label","name":"St-Barth\u00e9lemy","labelrank":6,"min_zoom":0.0,"type":"Dependency","iso_a3":"BLM"}},{"type":"Feature","geometry":{"type":"Point","coordinates":[-66.481065,18.234668]},"properties":{"kind":"country_label","name":"Puerto Rico","labelrank":5,"min_zoom":0.0,"type":"Dependency","iso_a3":"PRI"}},{"type":"Feature","geometry":{"type":"Point","coordinates":[-63.026361,18.242979]},"properties":{"kind":"country_label","name":"Anguilla","labelrank":6,"min_zoom":0.0,"type":"Dependency","iso_a3":"AIA"}},{"type":"Feature","geometry":{"type":"Point","coordinates":[-64.63661,18.426606]},"properties":{"kind":"country_label","name":"British Virgin Is.","labelrank":6,"min_zoom":0.0,"type":"Dependency","iso_a3":"VGB"}},{"type":"Feature","geometry":{"type":"Point","coordinates":[-77.318767,18.137124]},"properties":{"kind":"country_label","name":"Jamaica","labelrank":4,"min_zoom":0.0,"type":"Sovereign country","iso_a3":"JAM"}},{"type":"Feature","geometry":{"type":"Point","coordinates":[-81.24055,19.319862]},"properties":{"kind":"country_label","name":"Cayman Is.","labelrank":5,"min_zoom":0.0,"type":"Dependency","iso_a3":"CYM"}},{"type":"Feature","geometry":{"type":"Point","coordinates":[-64.763573,32.296592]},"properties":{"kind":"country_label","name":"Bermuda","labelrank":6,"min_zoom":0.0,"type":"Dependency","iso_a3":"BMU"}},{"type":"Feature","geometry":{"type":"Point","coordinates":[73.50521,-53.103462]},"properties":{"kind":"country_label","name":"Heard I. and McDonald Is.","labelrank":5,"min_zoom":0.0,"type":"Dependency","iso_a3":"HMD"}},{"type":"Feature","geometry":{"type":"Point","coordinates":[-5.71262,-15.950487]},"properties":{"kind":"country_label","name":"Saint Helena","labelrank":6,"min_zoom":0.0,"type":"Dependency","iso_a3":"SHN"}},{"type":"Feature","geometry":{"type":"Point","coordinates":[57.565848,-20.299506]},"properties":{"kind":"country_label","name":"Mauritius","labelrank":5,"min_zoom":0.0,"type":"Sovereign country","iso_a3":"MUS"}},{"type":"Feature","geometry":{"type":"Point","coordinates":[43.318094,-11.727683]},"properties":{"kind":"country_label","name":"Comoros","labelrank":6,"min_zoom":0.0,"type":"Sovereign country","iso_a3":"COM"}},{"type":"Feature","geometry":{"type":"Point","coordinates":[7.021,0.9709]},"properties":{"kind":"country_label","name":"S\u00e3o Tom\u00e9 and Principe","labelrank":6,"min_zoom":0.0,"type":"Sovereign country","iso_a3":"STP"}},{"type":"Feature","geometry":{"type":"Point","coordinates":[-23.639434,15.074761]},"properties":{"kind":"country_label","name":"Cabo Verde","labelrank":4,"min_zoom":0.0,"type":"Sovereign country","iso_a3":"CPV"}},{"type":"Feature","geometry":{"type":"Point","coordinates":[14.433005,35.892886]},"properties":{"kind":"country_label","name":"Malta","labelrank":5,"min_zoom":0.0,"type":"Sovereign country","iso_a3":"MLT"}},{"type":"Feature","geometry":{"type":"Point","coordinates":[-2.090146,49.220808]},"properties":{"kind":"country_label","name":"Jersey","labelrank":6,"min_zoom":0.0,"type":"Country","iso_a3":"JEY"}},{"type":"Feature","geometry":{"type":"Point","coordinates":[-2.561736,49.463533]},"properties":{"kind":"country_label","name":"Guernsey","labelrank":6,"min_zoom":0.0,"type":"Country","iso_a3":"GGY"}},{"type":"Feature","geometry":{"type":"Point","coordinates":[-4.530069,54.220833]},"properties":{"kind":"country_label","name":"Isle of Man","labelrank":6,"min_zoom":0.0,"type":"Country","iso_a3":"IMN"}},{"type":"Feature","geometry":{"type":"Point","coordinates":[19.869671,60.156467]},"properties":{"kind":"country_label","name":"\u00c5land","labelrank":6,"min_zoom":0.0,"type":"Country","iso_a3":"ALD"}},{"type":"Feature","geometry":{"type":"Point","coordinates":[-7.058429,62.185604]},"properties":{"kind":"country_label","name":"Faeroe Is.","labelrank":6,"min_zoom":0.0,"type":"Dependency","iso_a3":"FRO"}},{"type":"Feature","geometry":{"type":"Point","coordinates":[105.67259,-10.490789]},"properties":{"kind":"country_label","name":"Indian Ocean Ter.","labelrank":5,"min_zoom":0.0,"type":"Dependency","iso_a3":"IOA"}},{"type":"Feature","geometry":{"type":"Point","coordinates":[71.348349,-6.190826]},"properties":{"kind":"country_label","name":"Br. Indian Ocean Ter.","labelrank":5,"min_zoom":0.0,"type":"Disputed","iso_a3":"IOT"}},{"type":"Feature","geometry":{"type":"Point","coordinates":[103.816925,1.366587]},"properties":{"kind":"country_label","name":"Singapore","labelrank":6,"min_zoom":0.0,"type":"Sovereign country","iso_a3":"SGP"}},{"type":"Feature","geometry":{"type":"Point","coordinates":[167.954531,-29.033042]},"properties":{"kind":"country_label","name":"Norfolk Island","labelrank":5,"min_zoom":0.0,"type":"Dependency","iso_a3":"NFK"}},{"type":"Feature","geometry":{"type":"Point","coordinates":[-159.785675,-21.215993]},"properties":{"kind":"country_label","name":"Cook Is.","labelrank":4,"min_zoom":0.0,"type":"Dependency","iso_a3":"COK"}},{"type":"Feature","geometry":{"type":"Point","coordinates":[-175.163014,-21.210026]},"properties":{"kind":"country_label","name":"Tonga","labelrank":4,"min_zoom":0.0,"type":"Sovereign country","iso_a3":"TON"}},{"type":"Feature","geometry":{"type":"Point","coordinates":[-178.137436,-14.286415]},"properties":{"kind":"country_label","name":"Wallis and Futuna Is.","labelrank":4,"min_zoom":0.0,"type":"Dependency","iso_a3":"WLF"}},{"type":"Feature","geometry":{"type":"Point","coordinates":[-172.438241,-13.639139]},"properties":{"kind":"country_label","name":"Samoa","labelrank":4,"min_zoom":0.0,"type":"Sovereign country","iso_a3":"WSM"}},{"type":"Feature","geometry":{"type":"Point","coordinates":[159.170468,-8.029548]},"properties":{"kind":"country_label","name":"Solomon Is.","labelrank":3,"min_zoom":0.0,"type":"Sovereign country","iso_a3":"SLB"}},{"type":"Feature","geometry":{"type":"Point","coordinates":[179.209587,-8.513717]},"properties":{"kind":"country_label","name":"Tuvalu","labelrank":6,"min_zoom":0.0,"type":"Sovereign country","iso_a3":"TUV"}},{"type":"Feature","geometry":{"type":"Point","coordinates":[73.507554,4.174441]},"properties":{"kind":"country_label","name":"Maldives","labelrank":5,"min_zoom":0.0,"type":"Sovereign country","iso_a3":"MDV"}},{"type":"Feature","geometry":{"type":"Point","coordinates":[166.932644,-0.520261]},"properties":{"kind":"country_label","name":"Nauru","labelrank":6,"min_zoom":0.0,"type":"Sovereign country","iso_a3":"NRU"}},{"type":"Feature","geometry":{"type":"Point","coordinates":[158.234019,6.887553]},"properties":{"kind":"country_label","name":"Micronesia","labelrank":6,"min_zoom":0.0,"type":"Sovereign country","iso_a3":"FSM"}},{"type":"Feature","geometry":{"type":"Point","coordinates":[-31.063179,-55.683402]},"properties":{"kind":"country_label","name":"S. Geo. and the Is.","labelrank":4,"min_zoom":0.0,"type":"Dependency","iso_a3":"SGS"}},{"type":"Feature","geometry":{"type":"Point","coordinates":[-58.738602,-51.608913]},"properties":{"kind":"country_label","name":"Falkland Is.","labelrank":5,"min_zoom":0.0,"type":"Disputed","iso_a3":"FLK"}},{"type":"Feature","geometry":{"type":"Point","coordinates":[166.908762,-15.37153]},"properties":{"kind":"country_label","name":"Vanuatu","labelrank":4,"min_zoom":0.0,"type":"Sovereign country","iso_a3":"VUT"}},{"type":"Feature","geometry":{"type":"Point","coordinates":[-169.862565,-19.045956]},"properties":{"kind":"country_label","name":"Niue","labelrank":4,"min_zoom":0.0,"type":"Dependency","iso_a3":"NIU"}},{"type":"Feature","geometry":{"type":"Point","coordinates":[-170.747153,-14.32671]},"properties":{"kind":"country_label","name":"American Samoa","labelrank":4,"min_zoom":0.0,"type":"Dependency","iso_a3":"ASM"}},{"type":"Feature","geometry":{"type":"Point","coordinates":[134.580157,7.518252]},"properties":{"kind":"country_label","name":"Palau","labelrank":6,"min_zoom":0.0,"type":"Sovereign country","iso_a3":"PLW"}},{"type":"Feature","geometry":{"type":"Point","coordinates":[144.703614,13.354173]},"properties":{"kind":"country_label","name":"Guam","labelrank":6,"min_zoom":0.0,"type":"Dependency","iso_a3":"GUM"}},{"type":"Feature","geometry":{"type":"Point","coordinates":[145.734397,15.188188]},"properties":{"kind":"country_label","name":"N. Mariana Is.","labelrank":6,"min_zoom":0.0,"type":"Dependency","iso_a3":"MNP"}},{"type":"Feature","geometry":{"type":"Point","coordinates":[50.554816,26.055972]},"properties":{"kind":"country_label","name":"Bahrain","labelrank":4,"min_zoom":0.0,"type":"Sovereign country","iso_a3":"BHR"}},{"type":"Feature","geometry":{"type":"Point","coordinates":[154.390595,-21.029311]},"properties":{"kind":"country_label","name":"Coral Sea Is.","labelrank":5,"min_zoom":0.0,"type":"Dependency","iso_a3":"CSI"}},{"type":"Feature","geometry":{"type":"Point","coordinates":[115.81956,10.72954]},"properties":{"kind":"country_label","name":"Spratly Is.","labelrank":6,"min_zoom":6.0,"type":"Indeterminate","iso_a3":"PGA"}},{"type":"Feature","geometry":{"type":"Point","coordinates":[-109.22045,10.297324]},"properties":{"kind":"country_label","name":"Clipperton I.","labelrank":5,"min_zoom":0.0,"type":"Dependency","iso_a3":"CLP"}},{"type":"Feature","geometry":{"type":"Point","coordinates":[113.556038,22.129735]},"properties":{"kind":"country_label","name":"Macao","labelrank":4,"min_zoom":0.0,"type":"Country","iso_a3":"MAC"}},{"type":"Feature","geometry":{"type":"Point","coordinates":[123.586368,-12.432571]},"properties":{"kind":"country_label","name":"Ashmore and Cartier Is.","labelrank":5,"min_zoom":0.0,"type":"Dependency","iso_a3":"ATC"}},{"type":"Feature","geometry":{"type":"Point","coordinates":[-79.845836,15.791588]},"properties":{"kind":"country_label","name":"Bajo Nuevo Bank","labelrank":8,"min_zoom":7.0,"type":"Indeterminate","iso_a3":"BJN"}},{"type":"Feature","geometry":{"type":"Point","coordinates":[-78.638239,15.864308]},"properties":{"kind":"country_label","name":"Serranilla Bank","labelrank":5,"min_zoom":7.0,"type":"Indeterminate","iso_a3":"SER"}},{"type":"Feature","geometry":{"type":"Point","coordinates":[117.753812,15.152039]},"properties":{"kind":"country_label","name":"Scarborough Reef","labelrank":6,"min_zoom":7.0,"type":"Indeterminate","iso_a3":"SCR"}}]}